1 33933U 93036EN  18212.58047701 +.00000141 +00000-0 +63807-4 0  9992
2 33933 074.0899 258.9840 0078294 237.5040 121.8526 14.29009928493091
1 33935U 93036EQ  18212.31963111 +.00000448 +00000-0 +95993-4 0  9998
2 33935 074.0095 339.5236 0044453 065.3269 295.2516 14.61199327501179
1 33936U 93036ER  18213.01577237  .00000208  00000-0  63770-4 0  9999
2 33936  74.0216  59.9345 0035030 152.2458 208.0580 14.47480823499027
1 33938U 93036ET  18212.77347189 +.00000233 +00000-0 +83479-4 0  9990
2 33938 074.0492 145.1321 0019105 179.5492 201.4231 14.39201663496348
1 33939U 93036EU  18212.91799910 +.00000655 +00000-0 +19678-3 0  9997
2 33939 074.0265 133.7549 0022251 143.6047 334.2835 14.44485309496337
1 33940U 93036EV  18213.23668899  .00000381  00000-0  12218-3 0  9995
2 33940  74.0471 125.6625 0017640 153.9965   8.2409 14.42727363497098
1 33941U 93036EW  18213.46767629  .00011883  00000-0  41739-3 0  9991
2 33941  73.9749 353.9076 0027731  72.8658 287.5577 15.29064206512475
1 33944U 93036EZ  18213.41460868  .00000090  00000-0  39687-4 0  9992
2 33944  74.0404 193.2639 0122041 231.5522 283.9773 14.33073511494696
1 33945U 93036FA  18213.03645084  .00000018  00000-0  16238-4 0  9993
2 33945  74.0290 186.0030 0024033 206.6673 153.3244 14.32806957494787
1 33948U 93036FD  18212.94004604 +.00000038 +00000-0 +23392-4 0  9993
2 33948 074.0352 187.4483 0024916 202.9536 157.0505 14.33148197494577
1 33950U 97051BK  18212.60420290 +.00001614 +00000-0 +32440-3 0  9997
2 33950 086.3829 089.9570 0016943 127.7413 232.5336 14.60939809498659
1 33952U 97051BM  18213.05417435  .00001016  00000-0  22614-3 0  9994
2 33952  86.3515  77.6272 0012242 216.8522 143.1846 14.55951975498874
1 33953U 97051BN  18213.21730328  .00000402  00000-0  12463-3 0  9991
2 33953  86.3943 115.4000 0023416 354.6380 169.0722 14.38576532495610
1 33954U 97051BP  18213.47848039  .00000952  00000-0  20234-3 0  9994
2 33954  86.3796  98.2843 0017370 112.6637 304.3767 14.57958553497735
1 33955U 97051BQ  18213.40369559  .00003186  00000-0  56139-3 0  9998
2 33955  86.3558  92.8491 0036270 203.0625 156.8962 14.66820190497656
1 33956U 97051BR  18212.97167887 +.00004574 +00000-0 +68819-3 0  9990
2 33956 086.4108 102.6628 0040368 340.7954 077.6885 14.73707969249642
1 33959U 97051BU  18212.70580575 +.00000422 +00000-0 +14282-3 0  9990
2 33959 086.3665 128.4761 0061990 151.9687 208.4870 14.33367801491308
1 33960U 97051BV  18213.53146071  .00000773  00000-0  20817-3 0  9993
2 33960  86.2722  52.2722 0007293 163.3269 226.2449 14.46742255497741
1 33961U 97051BW  18213.34689993  .00001704  00000-0  31609-3 0  9994
2 33961  86.2710  41.5427 0020430 173.4988 186.6494 14.64560498499388
1 33962U 97051BX  18212.79736183  .00001874  00000-0  37013-3 0  9990
2 33962  86.3524  74.7100 0016993 201.2834 158.7672 14.61845039499256
1 33965U 97051CA  18212.63604813 +.00001251 +00000-0 +31153-3 0  9998
2 33965 086.3692 090.8520 0006702 215.4515 144.6245 14.50963873497635
1 33966U 97051CB  18212.64600775 +.00000294 +00000-0 +85946-4 0  9999
2 33966 086.3961 107.2454 0010129 103.8416 270.9413 14.40608313496365
1 33971U 93036FE  18212.86472022  .00000090  00000-0  40173-4 0  9997
2 33971  74.0265 162.6901 0020406 199.1022 191.9906 14.35688737494958
1 33972U 93036FF  18213.13091615  .00000417  00000-0  18718-3 0  9996
2 33972  73.9996   3.6793 0155851  66.1962  48.1313 14.19021388488065
1 33973U 93036FG  18213.56691199  .00000032  00000-0  17382-4 0  9997
2 33973  74.0079  71.9405 0047844 175.8083 205.2332 14.43080237497873
1 33975U 93036FJ  18212.87798935 +.00000082 +00000-0 +66209-4 0  9995
2 33975 073.8033 112.8140 0197448 343.0212 016.4370 13.96719463482316
1 33980U 93036FP  18212.80970699 +.00000199 +00000-0 +62463-4 0  9990
2 33980 074.0259 071.5697 0036046 154.2651 306.5245 14.46458949498066
1 33981U 93036FQ  18213.03352131  .00000706  00000-0  86241-4 0  9996
2 33981  73.8336  68.8589 0072917 338.6150  21.1983 14.83766523508183
1 33982U 93036FR  18212.94769020 +.00000109 +00000-0 +33131-4 0  9992
2 33982 074.0735 030.2142 0088162 057.8110 092.8601 14.51210943500654
1 33983U 93036FS  18212.71788257 +.00000147 +00000-0 +52145-4 0  9999
2 33983 074.0536 112.3074 0024611 171.0307 219.8649 14.42654768497673
1 33984U 93036FT  18212.94235348 +.00000274 +00000-0 +77709-4 0  9997
2 33984 074.0150 038.2339 0030706 169.0129 341.7226 14.49901916499627
1 33986U 93036FV  18213.15047038  .00000222  00000-0  88068-4 0  9993
2 33986  74.0392 203.0032 0049761 218.1007 266.2166 14.33704293494532
1 33989U 93036FY  18213.24902276  .00000469  00000-0  94999-4 0  9993
2 33989  74.0233 312.0847 0039350  70.3941 290.1468 14.63723931502626
1 33992U 93036GB  18213.48062934  .00000246  00000-0  67435-4 0  9999
2 33992  74.0283  30.3405 0070479  97.2825 293.6207 14.50924365500145
1 33993U 93036GC  18212.78452948 +.00000646 +00000-0 +13222-3 0  9998
2 33993 074.0215 351.9437 0030965 068.4646 291.9817 14.62662163501108
1 33994U 93036GD  18212.08296503 +.00000028 +00000-0 +17324-4 0  9997
2 33994 074.0445 121.8306 0024163 206.4522 216.1154 14.39620355496740
1 33995U 93036GE  18212.67271604 +.00000144 +00000-0 +70681-4 0  9992
2 33995 074.0677 304.1552 0071758 267.5123 091.7808 14.24988321491173
1 33996U 93036GF  18212.95577496 +.00002076 +00000-0 +46694-3 0  9994
2 33996 074.1064 196.1427 0065234 096.7959 264.0634 14.55779391495193
1 33999U 93036GJ  18213.06397155  .00000362  00000-0  91793-4 0  9999
2 33999  73.9388 354.4382 0074201 135.7222 224.9910 14.53007755500131
1 34000U 93036GK  18212.72662317 +.00000656 +00000-0 +15316-3 0  9992
2 34000 074.0428 048.3798 0026275 087.0640 039.6036 14.56586211499659
1 34001U 93036GL  18212.90941418 +.00000061 +00000-0 +30717-4 0  9998
2 34001 074.0392 174.2244 0021597 199.6411 174.8857 14.34550963495428
1 34003U 93036GN  18212.78372363  .00000823  00000-0  63269-3 0  9996
2 34003  74.0801  82.3230 0306505  98.4180 265.1805 13.74531171473823
1 34004U 93036GP  18212.89121461 +.00000332 +00000-0 +12895-3 0  9994
2 34004 074.0383 222.1731 0041639 181.4906 248.8738 14.33229703493727
1 34005U 93036GQ  18212.80184220 +.00000029 +00000-0 +18185-4 0  9990
2 34005 074.0466 134.2980 0021481 203.7083 186.9429 14.38454156496736
1 34006U 93036GR  18213.32722073  .00000667  00000-0  20746-3 0  9996
2 34006  74.0704 165.7581 0026420 126.1150  25.7032 14.42692304496159
1 34007U 93036GS  18212.95289521  .00000205  00000-0  58536-4 0  9998
2 34007  74.0238  35.2371 0059162 113.8103 246.9275 14.50329812499834
1 34008U 93036GT  18213.18447620  .00000008  00000-0  12785-4 0  9998
2 34008  74.0329 198.5719 0023121 129.2906 332.1086 14.31610151494542
1 34009U 93036GU  18213.12314869  .00000015  00000-0  15436-4 0  9995
2 34009  74.0358 203.1204 0029125 209.6315 242.8993 14.31389457494427
1 34010U 93036GV  18212.51745252 +.00000526 +00000-0 +13559-3 0  9993
2 34010 074.0237 050.2101 0028807 123.8103 263.4447 14.52323753499259
1 34011U 93036GW  18213.15346608  .00000261  00000-0  10685-3 0  9990
2 34011  74.0182 219.6439 0046895 227.2054 132.5149 14.31489904493656
1 34012U 93036GX  18212.86453671  .00002455  00000-0  54221-3 0  9998
2 34012  74.0272 162.9056 0052292 135.4383 225.1004 14.57014632495702
1 34013U 93036GY  18212.51080561  .00001363  00000-0  22169-3 0  9998
2 34013  74.0216 335.8161 0034461  18.7726 341.4707 14.71737227501787
1 34014U 93036GZ  18212.85132502 +.00000228 +00000-0 +60279-4 0  9993
2 34014 074.0250 005.6635 0052202 096.0670 055.5206 14.53765110500793
1 34015U 93036HA  18213.22071941  .00000736  00000-0  23259-3 0  9995
2 34015  74.0320 144.4213 0031980 177.3291 253.7163 14.41697536496362
1 34017U 93036HC  18212.57291705  .00005346  00000-0  51510-3 0  9999
2 34017  74.0046 355.8161 0018138 334.9422  25.0879 14.93070400501033
1 34018U 93036HD  18212.75154912 +.00000029 +00000-0 +38224-4 0  9999
2 34018 073.8804 317.0322 0271689 126.5290 034.0564 13.78203055475613
1 34019U 93036HE  18213.10057021  .00000187  00000-0  89416-4 0  9997
2 34019  73.9587 264.1651 0070466 313.7489  65.3449 14.24830354491370
1 34020U 93036HF  18213.45963883  .00000867  00000-0  14926-3 0  9997
2 34020  74.0384 309.2213 0037026   7.8239 352.3501 14.69772375502944
1 34021U 93036HG  18212.38649569 +.00000151 +00000-0 +52688-4 0  9995
2 34021 074.0412 100.4901 0022930 190.7241 290.4937 14.43082157497600
1 34022U 93036HH  18213.21173818  .00000074  00000-0  34376-4 0  9996
2 34022  74.0551 169.2684 0023954 190.3333 232.0097 14.35766556495791
1 34023U 93036HJ  18212.85088537 +.00000107 +00000-0 +45900-4 0  9991
2 34023 074.0279 163.1169 0020493 195.7024 185.8679 14.35866804495597
1 34024U 93036HK  18213.16558903  .00000038  00000-0  23317-4 0  9997
2 34024  74.0458 192.9133 0022536 192.1064 268.9259 14.32934548494889
1 34026U 93036HM  18212.67551608  .00000201  00000-0  19474-3 0  9999
2 34026  73.7676 102.7913 0363105  20.9417   7.3249 13.59831611469267
1 34028U 93036HP  18212.77344862 -.00000033 +00000-0 -15317-4 0  9992
2 34028 073.8840 143.0894 0552510 009.9038 015.1664 13.18534840455223
1 34029U 93036HQ  18213.10995167  .00001037  00000-0  10183-3 0  9999
2 34029  73.9459  69.6272 0078776 203.1830 156.5793 14.91462105509611
1 34030U 93036HR  18212.76854421  .00001703  00000-0  51098-4 0  9990
2 34030  73.9523 126.0154 0089905 222.1193 169.2320 15.31636844519257
1 34031U 93036HS  18213.21875708  .00000351  00000-0  11405-3 0  9998
2 34031  74.0196 124.4067 0032202 173.1907 341.2289 14.42112690496818
1 34032U 93036HT  18212.82471101 +.00000731 +00000-0 +21224-3 0  9996
2 34032 074.0341 152.3780 0053801 165.3346 225.4683 14.45284322495872
1 34033U 93036HU  18212.91487889 +.00000911 +00000-0 +27950-3 0  9999
2 34033 074.0069 176.6571 0062046 111.9783 266.0337 14.41998840494745
1 34035U 93036HW  18212.87220549 +.00000321 +00000-0 +12581-3 0  9993
2 34035 074.0714 248.7972 0060748 219.8982 195.0797 14.32418506493089
1 34036U 93036HX  18212.90269836  .00000766  00000-0  24130-3 0  9996
2 34036  74.0454 172.5304 0047833 174.4074 185.7626 14.41407844495477
